{
"type": "FeatureCollection",
"crs": { "type": "name", "properties": { "name": "urn:ogc:def:crs:ESRI::102031" } },
"features": [
{ "type": "Feature", "properties": { "h3": "841fa13ffffffff", "count": 8.0, "ratio": 0, "z_score": null, "p_value": null, "bin": 0, "date": "2021-07-01T00:00:00" }, "geometry": { "type": "Polygon", "coordinates": [ [ [ -163145.249807501764735, 2306524.061797318980098 ], [ -169890.208663254597923, 2282783.891955998260528 ], [ -152353.920040687808068, 2267061.998748318757862 ], [ -128035.975160935602617, 2275146.790453087538481 ], [ -121334.977087857740116, 2298946.607971276622266 ], [ -138907.722504065517569, 2314602.047366945073009 ], [ -163145.249807501764735, 2306524.061797318980098 ] ] ] } },
{ "type": "Feature", "properties": { "h3": "841fa3bffffffff", "count": 1.0, "ratio": 0, "z_score": null, "p_value": null, "bin": 0, "date": "2021-07-01T00:00:00" }, "geometry": { "type": "Polygon", "coordinates": [ [ [ -225195.645115368650295, 2242862.381689661648124 ], [ -232038.849866867327364, 2219012.485566190909594 ], [ -214578.247873132611858, 2203157.944964934140444 ], [ -190235.903399627859471, 2211219.627390718553215 ], [ -183435.526872788992478, 2235131.129351895302534 ], [ -200934.43042380726547, 2250919.395893532317132 ], [ -225195.645115368650295, 2242862.381689661648124 ] ] ] } },
{ "type": "Feature", "properties": { "h3": "841fa03ffffffff", "count": 11.0, "ratio": 0, "z_score": null, "p_value": null, "bin": 0, "date": "2021-07-01T00:00:00" }, "geometry": { "type": "Polygon", "coordinates": [ [ [ -277165.533947431540582, 2289937.75497801695019 ], [ -284043.74740027054213, 2266265.248807171359658 ], [ -266771.556744947447442, 2250566.443808128125966 ], [ -242581.529859822563594, 2258606.312553789000958 ], [ -235744.833699901966611, 2282340.957534944172949 ], [ -253056.413180185423698, 2297973.64389383001253 ], [ -277165.533947431540582, 2289937.75497801695019 ] ] ] } },
{ "type": "Feature", "properties": { "h3": "841fa17ffffffff", "count": 62.0, "ratio": 0, "z_score": null, "p_value": null, "bin": 0, "date": "2021-07-01T00:00:00" }, "geometry": { "type": "Polygon", "coordinates": [ [ [ -194140.190711216157069, 2274715.434172971639782 ], [ -200934.43042380726547, 2250919.395893532317132 ], [ -183435.526872788992478, 2235131.129351895302534 ], [ -159104.760139008052647, 2243205.331504403147846 ], [ -152353.920040687808068, 2267061.998748318757862 ], [ -169890.208663254597923, 2282783.891955998260528 ], [ -194140.190711216157069, 2274715.434172971639782 ] ] ] } },
{ "type": "Feature", "properties": { "h3": "841fa1dffffffff", "count": 30.0, "ratio": 0, "z_score": null, "p_value": null, "bin": 0, "date": "2021-07-01T00:00:00" }, "geometry": { "type": "Polygon", "coordinates": [ [ [ -246226.363554838259006, 2321592.233359240461141 ], [ -253056.413180185423698, 2297973.64389383001253 ], [ -235744.833699901966611, 2282340.957534944172949 ], [ -211564.473003931547282, 2290393.117955048568547 ], [ -204776.498256248567486, 2314072.872277738992125 ], [ -222126.573101351765217, 2329639.354491400532424 ], [ -246226.363554838259006, 2321592.233359240461141 ] ] ] } },
{ "type": "Feature", "properties": { "h3": "841fa39ffffffff", "count": 1.0, "ratio": 0, "z_score": null, "p_value": null, "bin": 0, "date": "2021-07-01T00:00:00" }, "geometry": { "type": "Polygon", "coordinates": [ [ [ -266771.556744947447442, 2250566.443808128125966 ], [ -273656.648329236486461, 2226778.913882328663021 ], [ -256310.060174095386174, 2210968.837764331139624 ], [ -232038.849866867327364, 2219012.485566190909594 ], [ -225195.645115368650295, 2242862.381689661648124 ], [ -242581.529859822563594, 2258606.312553789000958 ], [ -266771.556744947447442, 2250566.443808128125966 ] ] ] } },
{ "type": "Feature", "properties": { "h3": "841fa15ffffffff", "count": 7.0, "ratio": 0, "z_score": null, "p_value": null, "bin": 0, "date": "2021-07-01T00:00:00" }, "geometry": { "type": "Polygon", "coordinates": [ [ [ -235744.833699901966611, 2282340.957534944172949 ], [ -242581.529859822563594, 2258606.312553789000958 ], [ -225195.645115368650295, 2242862.381689661648124 ], [ -200934.43042380726547, 2250919.395893532317132 ], [ -194140.190711216157069, 2274715.434172971639782 ], [ -211564.473003931547282, 2290393.117955048568547 ], [ -235744.833699901966611, 2282340.957534944172949 ] ] ] } },
{ "type": "Feature", "properties": { "h3": "841fa11ffffffff", "count": 41.0, "ratio": 0, "z_score": null, "p_value": null, "bin": 0, "date": "2021-07-01T00:00:00" }, "geometry": { "type": "Polygon", "coordinates": [ [ [ -204776.498256248567486, 2314072.872277738992125 ], [ -211564.473003931547282, 2290393.117955048568547 ], [ -194140.190711216157069, 2274715.434172971639782 ], [ -169890.208663254597923, 2282783.891955998260528 ], [ -163145.249807501764735, 2306524.061797318980098 ], [ -180607.018625057040481, 2322135.415549024473876 ], [ -204776.498256248567486, 2314072.872277738992125 ] ] ] } },
{ "type": "Feature", "properties": { "h3": "841fa13ffffffff", "count": 8.0, "ratio": 0, "z_score": null, "p_value": null, "bin": 0, "date": "2021-07-02T00:00:00" }, "geometry": { "type": "Polygon", "coordinates": [ [ [ -163145.249807501764735, 2306524.061797318980098 ], [ -169890.208663254597923, 2282783.891955998260528 ], [ -152353.920040687808068, 2267061.998748318757862 ], [ -128035.975160935602617, 2275146.790453087538481 ], [ -121334.977087857740116, 2298946.607971276622266 ], [ -138907.722504065517569, 2314602.047366945073009 ], [ -163145.249807501764735, 2306524.061797318980098 ] ] ] } },
{ "type": "Feature", "properties": { "h3": "841fa3bffffffff", "count": 1.0, "ratio": 0, "z_score": null, "p_value": null, "bin": 0, "date": "2021-07-02T00:00:00" }, "geometry": { "type": "Polygon", "coordinates": [ [ [ -225195.645115368650295, 2242862.381689661648124 ], [ -232038.849866867327364, 2219012.485566190909594 ], [ -214578.247873132611858, 2203157.944964934140444 ], [ -190235.903399627859471, 2211219.627390718553215 ], [ -183435.526872788992478, 2235131.129351895302534 ], [ -200934.43042380726547, 2250919.395893532317132 ], [ -225195.645115368650295, 2242862.381689661648124 ] ] ] } },
{ "type": "Feature", "properties": { "h3": "841fa03ffffffff", "count": 11.0, "ratio": 0, "z_score": null, "p_value": null, "bin": 0, "date": "2021-07-02T00:00:00" }, "geometry": { "type": "Polygon", "coordinates": [ [ [ -277165.533947431540582, 2289937.75497801695019 ], [ -284043.74740027054213, 2266265.248807171359658 ], [ -266771.556744947447442, 2250566.443808128125966 ], [ -242581.529859822563594, 2258606.312553789000958 ], [ -235744.833699901966611, 2282340.957534944172949 ], [ -253056.413180185423698, 2297973.64389383001253 ], [ -277165.533947431540582, 2289937.75497801695019 ] ] ] } },
{ "type": "Feature", "properties": { "h3": "841fa17ffffffff", "count": 62.0, "ratio": 0, "z_score": null, "p_value": null, "bin": 0, "date": "2021-07-02T00:00:00" }, "geometry": { "type": "Polygon", "coordinates": [ [ [ -194140.190711216157069, 2274715.434172971639782 ], [ -200934.43042380726547, 2250919.395893532317132 ], [ -183435.526872788992478, 2235131.129351895302534 ], [ -159104.760139008052647, 2243205.331504403147846 ], [ -152353.920040687808068, 2267061.998748318757862 ], [ -169890.208663254597923, 2282783.891955998260528 ], [ -194140.190711216157069, 2274715.434172971639782 ] ] ] } },
{ "type": "Feature", "properties": { "h3": "841fa1dffffffff", "count": 30.0, "ratio": 0, "z_score": null, "p_value": null, "bin": 0, "date": "2021-07-02T00:00:00" }, "geometry": { "type": "Polygon", "coordinates": [ [ [ -246226.363554838259006, 2321592.233359240461141 ], [ -253056.413180185423698, 2297973.64389383001253 ], [ -235744.833699901966611, 2282340.957534944172949 ], [ -211564.473003931547282, 2290393.117955048568547 ], [ -204776.498256248567486, 2314072.872277738992125 ], [ -222126.573101351765217, 2329639.354491400532424 ], [ -246226.363554838259006, 2321592.233359240461141 ] ] ] } },
{ "type": "Feature", "properties": { "h3": "841fa39ffffffff", "count": 1.0, "ratio": 0, "z_score": null, "p_value": null, "bin": 0, "date": "2021-07-02T00:00:00" }, "geometry": { "type": "Polygon", "coordinates": [ [ [ -266771.556744947447442, 2250566.443808128125966 ], [ -273656.648329236486461, 2226778.913882328663021 ], [ -256310.060174095386174, 2210968.837764331139624 ], [ -232038.849866867327364, 2219012.485566190909594 ], [ -225195.645115368650295, 2242862.381689661648124 ], [ -242581.529859822563594, 2258606.312553789000958 ], [ -266771.556744947447442, 2250566.443808128125966 ] ] ] } },
{ "type": "Feature", "properties": { "h3": "841fa15ffffffff", "count": 7.0, "ratio": 0, "z_score": null, "p_value": null, "bin": 0, "date": "2021-07-02T00:00:00" }, "geometry": { "type": "Polygon", "coordinates": [ [ [ -235744.833699901966611, 2282340.957534944172949 ], [ -242581.529859822563594, 2258606.312553789000958 ], [ -225195.645115368650295, 2242862.381689661648124 ], [ -200934.43042380726547, 2250919.395893532317132 ], [ -194140.190711216157069, 2274715.434172971639782 ], [ -211564.473003931547282, 2290393.117955048568547 ], [ -235744.833699901966611, 2282340.957534944172949 ] ] ] } },
{ "type": "Feature", "properties": { "h3": "841fa11ffffffff", "count": 42.0, "ratio": 0, "z_score": null, "p_value": null, "bin": 0, "date": "2021-07-02T00:00:00" }, "geometry": { "type": "Polygon", "coordinates": [ [ [ -204776.498256248567486, 2314072.872277738992125 ], [ -211564.473003931547282, 2290393.117955048568547 ], [ -194140.190711216157069, 2274715.434172971639782 ], [ -169890.208663254597923, 2282783.891955998260528 ], [ -163145.249807501764735, 2306524.061797318980098 ], [ -180607.018625057040481, 2322135.415549024473876 ], [ -204776.498256248567486, 2314072.872277738992125 ] ] ] } },
{ "type": "Feature", "properties": { "h3": "841fa13ffffffff", "count": 0.0, "ratio": 0, "z_score": null, "p_value": null, "bin": 0, "date": "2021-07-03T00:00:00" }, "geometry": { "type": "Polygon", "coordinates": [ [ [ -163145.249807501764735, 2306524.061797318980098 ], [ -169890.208663254597923, 2282783.891955998260528 ], [ -152353.920040687808068, 2267061.998748318757862 ], [ -128035.975160935602617, 2275146.790453087538481 ], [ -121334.977087857740116, 2298946.607971276622266 ], [ -138907.722504065517569, 2314602.047366945073009 ], [ -163145.249807501764735, 2306524.061797318980098 ] ] ] } },
{ "type": "Feature", "properties": { "h3": "841fa3bffffffff", "count": 0.0, "ratio": 0, "z_score": null, "p_value": null, "bin": 0, "date": "2021-07-03T00:00:00" }, "geometry": { "type": "Polygon", "coordinates": [ [ [ -225195.645115368650295, 2242862.381689661648124 ], [ -232038.849866867327364, 2219012.485566190909594 ], [ -214578.247873132611858, 2203157.944964934140444 ], [ -190235.903399627859471, 2211219.627390718553215 ], [ -183435.526872788992478, 2235131.129351895302534 ], [ -200934.43042380726547, 2250919.395893532317132 ], [ -225195.645115368650295, 2242862.381689661648124 ] ] ] } },
{ "type": "Feature", "properties": { "h3": "841fa03ffffffff", "count": 0.0, "ratio": 0, "z_score": null, "p_value": null, "bin": 0, "date": "2021-07-03T00:00:00" }, "geometry": { "type": "Polygon", "coordinates": [ [ [ -277165.533947431540582, 2289937.75497801695019 ], [ -284043.74740027054213, 2266265.248807171359658 ], [ -266771.556744947447442, 2250566.443808128125966 ], [ -242581.529859822563594, 2258606.312553789000958 ], [ -235744.833699901966611, 2282340.957534944172949 ], [ -253056.413180185423698, 2297973.64389383001253 ], [ -277165.533947431540582, 2289937.75497801695019 ] ] ] } },
{ "type": "Feature", "properties": { "h3": "841fa17ffffffff", "count": 0.0, "ratio": 0, "z_score": null, "p_value": null, "bin": 0, "date": "2021-07-03T00:00:00" }, "geometry": { "type": "Polygon", "coordinates": [ [ [ -194140.190711216157069, 2274715.434172971639782 ], [ -200934.43042380726547, 2250919.395893532317132 ], [ -183435.526872788992478, 2235131.129351895302534 ], [ -159104.760139008052647, 2243205.331504403147846 ], [ -152353.920040687808068, 2267061.998748318757862 ], [ -169890.208663254597923, 2282783.891955998260528 ], [ -194140.190711216157069, 2274715.434172971639782 ] ] ] } },
{ "type": "Feature", "properties": { "h3": "841fa1dffffffff", "count": 0.0, "ratio": 0, "z_score": null, "p_value": null, "bin": 0, "date": "2021-07-03T00:00:00" }, "geometry": { "type": "Polygon", "coordinates": [ [ [ -246226.363554838259006, 2321592.233359240461141 ], [ -253056.413180185423698, 2297973.64389383001253 ], [ -235744.833699901966611, 2282340.957534944172949 ], [ -211564.473003931547282, 2290393.117955048568547 ], [ -204776.498256248567486, 2314072.872277738992125 ], [ -222126.573101351765217, 2329639.354491400532424 ], [ -246226.363554838259006, 2321592.233359240461141 ] ] ] } },
{ "type": "Feature", "properties": { "h3": "841fa39ffffffff", "count": 0.0, "ratio": 0, "z_score": null, "p_value": null, "bin": 0, "date": "2021-07-03T00:00:00" }, "geometry": { "type": "Polygon", "coordinates": [ [ [ -266771.556744947447442, 2250566.443808128125966 ], [ -273656.648329236486461, 2226778.913882328663021 ], [ -256310.060174095386174, 2210968.837764331139624 ], [ -232038.849866867327364, 2219012.485566190909594 ], [ -225195.645115368650295, 2242862.381689661648124 ], [ -242581.529859822563594, 2258606.312553789000958 ], [ -266771.556744947447442, 2250566.443808128125966 ] ] ] } },
{ "type": "Feature", "properties": { "h3": "841fa15ffffffff", "count": 1.0, "ratio": 0, "z_score": null, "p_value": null, "bin": 0, "date": "2021-07-03T00:00:00" }, "geometry": { "type": "Polygon", "coordinates": [ [ [ -235744.833699901966611, 2282340.957534944172949 ], [ -242581.529859822563594, 2258606.312553789000958 ], [ -225195.645115368650295, 2242862.381689661648124 ], [ -200934.43042380726547, 2250919.395893532317132 ], [ -194140.190711216157069, 2274715.434172971639782 ], [ -211564.473003931547282, 2290393.117955048568547 ], [ -235744.833699901966611, 2282340.957534944172949 ] ] ] } },
{ "type": "Feature", "properties": { "h3": "841fa11ffffffff", "count": 3.0, "ratio": 0, "z_score": null, "p_value": null, "bin": 0, "date": "2021-07-03T00:00:00" }, "geometry": { "type": "Polygon", "coordinates": [ [ [ -204776.498256248567486, 2314072.872277738992125 ], [ -211564.473003931547282, 2290393.117955048568547 ], [ -194140.190711216157069, 2274715.434172971639782 ], [ -169890.208663254597923, 2282783.891955998260528 ], [ -163145.249807501764735, 2306524.061797318980098 ], [ -180607.018625057040481, 2322135.415549024473876 ], [ -204776.498256248567486, 2314072.872277738992125 ] ] ] } },
{ "type": "Feature", "properties": { "h3": "841fa13ffffffff", "count": 0.0, "ratio": 0, "z_score": null, "p_value": null, "bin": 0, "date": "2021-07-23T00:00:00" }, "geometry": { "type": "Polygon", "coordinates": [ [ [ -163145.249807501764735, 2306524.061797318980098 ], [ -169890.208663254597923, 2282783.891955998260528 ], [ -152353.920040687808068, 2267061.998748318757862 ], [ -128035.975160935602617, 2275146.790453087538481 ], [ -121334.977087857740116, 2298946.607971276622266 ], [ -138907.722504065517569, 2314602.047366945073009 ], [ -163145.249807501764735, 2306524.061797318980098 ] ] ] } },
{ "type": "Feature", "properties": { "h3": "841fa3bffffffff", "count": 0.0, "ratio": 0, "z_score": null, "p_value": null, "bin": 0, "date": "2021-07-23T00:00:00" }, "geometry": { "type": "Polygon", "coordinates": [ [ [ -225195.645115368650295, 2242862.381689661648124 ], [ -232038.849866867327364, 2219012.485566190909594 ], [ -214578.247873132611858, 2203157.944964934140444 ], [ -190235.903399627859471, 2211219.627390718553215 ], [ -183435.526872788992478, 2235131.129351895302534 ], [ -200934.43042380726547, 2250919.395893532317132 ], [ -225195.645115368650295, 2242862.381689661648124 ] ] ] } },
{ "type": "Feature", "properties": { "h3": "841fa03ffffffff", "count": 0.0, "ratio": 0, "z_score": null, "p_value": null, "bin": 0, "date": "2021-07-23T00:00:00" }, "geometry": { "type": "Polygon", "coordinates": [ [ [ -277165.533947431540582, 2289937.75497801695019 ], [ -284043.74740027054213, 2266265.248807171359658 ], [ -266771.556744947447442, 2250566.443808128125966 ], [ -242581.529859822563594, 2258606.312553789000958 ], [ -235744.833699901966611, 2282340.957534944172949 ], [ -253056.413180185423698, 2297973.64389383001253 ], [ -277165.533947431540582, 2289937.75497801695019 ] ] ] } },
{ "type": "Feature", "properties": { "h3": "841fa17ffffffff", "count": 0.0, "ratio": 0, "z_score": null, "p_value": null, "bin": 0, "date": "2021-07-23T00:00:00" }, "geometry": { "type": "Polygon", "coordinates": [ [ [ -194140.190711216157069, 2274715.434172971639782 ], [ -200934.43042380726547, 2250919.395893532317132 ], [ -183435.526872788992478, 2235131.129351895302534 ], [ -159104.760139008052647, 2243205.331504403147846 ], [ -152353.920040687808068, 2267061.998748318757862 ], [ -169890.208663254597923, 2282783.891955998260528 ], [ -194140.190711216157069, 2274715.434172971639782 ] ] ] } },
{ "type": "Feature", "properties": { "h3": "841fa1dffffffff", "count": 2.0, "ratio": 0, "z_score": null, "p_value": null, "bin": 0, "date": "2021-07-23T00:00:00" }, "geometry": { "type": "Polygon", "coordinates": [ [ [ -246226.363554838259006, 2321592.233359240461141 ], [ -253056.413180185423698, 2297973.64389383001253 ], [ -235744.833699901966611, 2282340.957534944172949 ], [ -211564.473003931547282, 2290393.117955048568547 ], [ -204776.498256248567486, 2314072.872277738992125 ], [ -222126.573101351765217, 2329639.354491400532424 ], [ -246226.363554838259006, 2321592.233359240461141 ] ] ] } },
{ "type": "Feature", "properties": { "h3": "841fa39ffffffff", "count": 0.0, "ratio": 0, "z_score": null, "p_value": null, "bin": 0, "date": "2021-07-23T00:00:00" }, "geometry": { "type": "Polygon", "coordinates": [ [ [ -266771.556744947447442, 2250566.443808128125966 ], [ -273656.648329236486461, 2226778.913882328663021 ], [ -256310.060174095386174, 2210968.837764331139624 ], [ -232038.849866867327364, 2219012.485566190909594 ], [ -225195.645115368650295, 2242862.381689661648124 ], [ -242581.529859822563594, 2258606.312553789000958 ], [ -266771.556744947447442, 2250566.443808128125966 ] ] ] } },
{ "type": "Feature", "properties": { "h3": "841fa15ffffffff", "count": 0.0, "ratio": 0, "z_score": null, "p_value": null, "bin": 0, "date": "2021-07-23T00:00:00" }, "geometry": { "type": "Polygon", "coordinates": [ [ [ -235744.833699901966611, 2282340.957534944172949 ], [ -242581.529859822563594, 2258606.312553789000958 ], [ -225195.645115368650295, 2242862.381689661648124 ], [ -200934.43042380726547, 2250919.395893532317132 ], [ -194140.190711216157069, 2274715.434172971639782 ], [ -211564.473003931547282, 2290393.117955048568547 ], [ -235744.833699901966611, 2282340.957534944172949 ] ] ] } },
{ "type": "Feature", "properties": { "h3": "841fa11ffffffff", "count": 0.0, "ratio": 0, "z_score": null, "p_value": null, "bin": 0, "date": "2021-07-23T00:00:00" }, "geometry": { "type": "Polygon", "coordinates": [ [ [ -204776.498256248567486, 2314072.872277738992125 ], [ -211564.473003931547282, 2290393.117955048568547 ], [ -194140.190711216157069, 2274715.434172971639782 ], [ -169890.208663254597923, 2282783.891955998260528 ], [ -163145.249807501764735, 2306524.061797318980098 ], [ -180607.018625057040481, 2322135.415549024473876 ], [ -204776.498256248567486, 2314072.872277738992125 ] ] ] } },
{ "type": "Feature", "properties": { "h3": "841fa13ffffffff", "count": 0.0, "ratio": 0, "z_score": null, "p_value": null, "bin": 0, "date": "2021-07-24T00:00:00" }, "geometry": { "type": "Polygon", "coordinates": [ [ [ -163145.249807501764735, 2306524.061797318980098 ], [ -169890.208663254597923, 2282783.891955998260528 ], [ -152353.920040687808068, 2267061.998748318757862 ], [ -128035.975160935602617, 2275146.790453087538481 ], [ -121334.977087857740116, 2298946.607971276622266 ], [ -138907.722504065517569, 2314602.047366945073009 ], [ -163145.249807501764735, 2306524.061797318980098 ] ] ] } },
{ "type": "Feature", "properties": { "h3": "841fa3bffffffff", "count": 0.0, "ratio": 0, "z_score": null, "p_value": null, "bin": 0, "date": "2021-07-24T00:00:00" }, "geometry": { "type": "Polygon", "coordinates": [ [ [ -225195.645115368650295, 2242862.381689661648124 ], [ -232038.849866867327364, 2219012.485566190909594 ], [ -214578.247873132611858, 2203157.944964934140444 ], [ -190235.903399627859471, 2211219.627390718553215 ], [ -183435.526872788992478, 2235131.129351895302534 ], [ -200934.43042380726547, 2250919.395893532317132 ], [ -225195.645115368650295, 2242862.381689661648124 ] ] ] } },
{ "type": "Feature", "properties": { "h3": "841fa03ffffffff", "count": 0.0, "ratio": 0, "z_score": null, "p_value": null, "bin": 0, "date": "2021-07-24T00:00:00" }, "geometry": { "type": "Polygon", "coordinates": [ [ [ -277165.533947431540582, 2289937.75497801695019 ], [ -284043.74740027054213, 2266265.248807171359658 ], [ -266771.556744947447442, 2250566.443808128125966 ], [ -242581.529859822563594, 2258606.312553789000958 ], [ -235744.833699901966611, 2282340.957534944172949 ], [ -253056.413180185423698, 2297973.64389383001253 ], [ -277165.533947431540582, 2289937.75497801695019 ] ] ] } },
{ "type": "Feature", "properties": { "h3": "841fa17ffffffff", "count": 0.0, "ratio": 0, "z_score": null, "p_value": null, "bin": 0, "date": "2021-07-24T00:00:00" }, "geometry": { "type": "Polygon", "coordinates": [ [ [ -194140.190711216157069, 2274715.434172971639782 ], [ -200934.43042380726547, 2250919.395893532317132 ], [ -183435.526872788992478, 2235131.129351895302534 ], [ -159104.760139008052647, 2243205.331504403147846 ], [ -152353.920040687808068, 2267061.998748318757862 ], [ -169890.208663254597923, 2282783.891955998260528 ], [ -194140.190711216157069, 2274715.434172971639782 ] ] ] } },
{ "type": "Feature", "properties": { "h3": "841fa1dffffffff", "count": 2.0, "ratio": 0, "z_score": null, "p_value": null, "bin": 0, "date": "2021-07-24T00:00:00" }, "geometry": { "type": "Polygon", "coordinates": [ [ [ -246226.363554838259006, 2321592.233359240461141 ], [ -253056.413180185423698, 2297973.64389383001253 ], [ -235744.833699901966611, 2282340.957534944172949 ], [ -211564.473003931547282, 2290393.117955048568547 ], [ -204776.498256248567486, 2314072.872277738992125 ], [ -222126.573101351765217, 2329639.354491400532424 ], [ -246226.363554838259006, 2321592.233359240461141 ] ] ] } },
{ "type": "Feature", "properties": { "h3": "841fa39ffffffff", "count": 0.0, "ratio": 0, "z_score": null, "p_value": null, "bin": 0, "date": "2021-07-24T00:00:00" }, "geometry": { "type": "Polygon", "coordinates": [ [ [ -266771.556744947447442, 2250566.443808128125966 ], [ -273656.648329236486461, 2226778.913882328663021 ], [ -256310.060174095386174, 2210968.837764331139624 ], [ -232038.849866867327364, 2219012.485566190909594 ], [ -225195.645115368650295, 2242862.381689661648124 ], [ -242581.529859822563594, 2258606.312553789000958 ], [ -266771.556744947447442, 2250566.443808128125966 ] ] ] } },
{ "type": "Feature", "properties": { "h3": "841fa15ffffffff", "count": 0.0, "ratio": 0, "z_score": null, "p_value": null, "bin": 0, "date": "2021-07-24T00:00:00" }, "geometry": { "type": "Polygon", "coordinates": [ [ [ -235744.833699901966611, 2282340.957534944172949 ], [ -242581.529859822563594, 2258606.312553789000958 ], [ -225195.645115368650295, 2242862.381689661648124 ], [ -200934.43042380726547, 2250919.395893532317132 ], [ -194140.190711216157069, 2274715.434172971639782 ], [ -211564.473003931547282, 2290393.117955048568547 ], [ -235744.833699901966611, 2282340.957534944172949 ] ] ] } },
{ "type": "Feature", "properties": { "h3": "841fa11ffffffff", "count": 1.0, "ratio": 0, "z_score": null, "p_value": null, "bin": 0, "date": "2021-07-24T00:00:00" }, "geometry": { "type": "Polygon", "coordinates": [ [ [ -204776.498256248567486, 2314072.872277738992125 ], [ -211564.473003931547282, 2290393.117955048568547 ], [ -194140.190711216157069, 2274715.434172971639782 ], [ -169890.208663254597923, 2282783.891955998260528 ], [ -163145.249807501764735, 2306524.061797318980098 ], [ -180607.018625057040481, 2322135.415549024473876 ], [ -204776.498256248567486, 2314072.872277738992125 ] ] ] } },
{ "type": "Feature", "properties": { "h3": "841fa13ffffffff", "count": 0.0, "ratio": 0, "z_score": null, "p_value": null, "bin": 0, "date": "2021-07-25T00:00:00" }, "geometry": { "type": "Polygon", "coordinates": [ [ [ -163145.249807501764735, 2306524.061797318980098 ], [ -169890.208663254597923, 2282783.891955998260528 ], [ -152353.920040687808068, 2267061.998748318757862 ], [ -128035.975160935602617, 2275146.790453087538481 ], [ -121334.977087857740116, 2298946.607971276622266 ], [ -138907.722504065517569, 2314602.047366945073009 ], [ -163145.249807501764735, 2306524.061797318980098 ] ] ] } },
{ "type": "Feature", "properties": { "h3": "841fa3bffffffff", "count": 0.0, "ratio": 0, "z_score": null, "p_value": null, "bin": 0, "date": "2021-07-25T00:00:00" }, "geometry": { "type": "Polygon", "coordinates": [ [ [ -225195.645115368650295, 2242862.381689661648124 ], [ -232038.849866867327364, 2219012.485566190909594 ], [ -214578.247873132611858, 2203157.944964934140444 ], [ -190235.903399627859471, 2211219.627390718553215 ], [ -183435.526872788992478, 2235131.129351895302534 ], [ -200934.43042380726547, 2250919.395893532317132 ], [ -225195.645115368650295, 2242862.381689661648124 ] ] ] } },
{ "type": "Feature", "properties": { "h3": "841fa03ffffffff", "count": 0.0, "ratio": 0, "z_score": null, "p_value": null, "bin": 0, "date": "2021-07-25T00:00:00" }, "geometry": { "type": "Polygon", "coordinates": [ [ [ -277165.533947431540582, 2289937.75497801695019 ], [ -284043.74740027054213, 2266265.248807171359658 ], [ -266771.556744947447442, 2250566.443808128125966 ], [ -242581.529859822563594, 2258606.312553789000958 ], [ -235744.833699901966611, 2282340.957534944172949 ], [ -253056.413180185423698, 2297973.64389383001253 ], [ -277165.533947431540582, 2289937.75497801695019 ] ] ] } },
{ "type": "Feature", "properties": { "h3": "841fa17ffffffff", "count": 1.0, "ratio": 0, "z_score": null, "p_value": null, "bin": 0, "date": "2021-07-25T00:00:00" }, "geometry": { "type": "Polygon", "coordinates": [ [ [ -194140.190711216157069, 2274715.434172971639782 ], [ -200934.43042380726547, 2250919.395893532317132 ], [ -183435.526872788992478, 2235131.129351895302534 ], [ -159104.760139008052647, 2243205.331504403147846 ], [ -152353.920040687808068, 2267061.998748318757862 ], [ -169890.208663254597923, 2282783.891955998260528 ], [ -194140.190711216157069, 2274715.434172971639782 ] ] ] } },
{ "type": "Feature", "properties": { "h3": "841fa1dffffffff", "count": 0.0, "ratio": 0, "z_score": null, "p_value": null, "bin": 0, "date": "2021-07-25T00:00:00" }, "geometry": { "type": "Polygon", "coordinates": [ [ [ -246226.363554838259006, 2321592.233359240461141 ], [ -253056.413180185423698, 2297973.64389383001253 ], [ -235744.833699901966611, 2282340.957534944172949 ], [ -211564.473003931547282, 2290393.117955048568547 ], [ -204776.498256248567486, 2314072.872277738992125 ], [ -222126.573101351765217, 2329639.354491400532424 ], [ -246226.363554838259006, 2321592.233359240461141 ] ] ] } },
{ "type": "Feature", "properties": { "h3": "841fa39ffffffff", "count": 0.0, "ratio": 0, "z_score": null, "p_value": null, "bin": 0, "date": "2021-07-25T00:00:00" }, "geometry": { "type": "Polygon", "coordinates": [ [ [ -266771.556744947447442, 2250566.443808128125966 ], [ -273656.648329236486461, 2226778.913882328663021 ], [ -256310.060174095386174, 2210968.837764331139624 ], [ -232038.849866867327364, 2219012.485566190909594 ], [ -225195.645115368650295, 2242862.381689661648124 ], [ -242581.529859822563594, 2258606.312553789000958 ], [ -266771.556744947447442, 2250566.443808128125966 ] ] ] } },
{ "type": "Feature", "properties": { "h3": "841fa15ffffffff", "count": 0.0, "ratio": 0, "z_score": null, "p_value": null, "bin": 0, "date": "2021-07-25T00:00:00" }, "geometry": { "type": "Polygon", "coordinates": [ [ [ -235744.833699901966611, 2282340.957534944172949 ], [ -242581.529859822563594, 2258606.312553789000958 ], [ -225195.645115368650295, 2242862.381689661648124 ], [ -200934.43042380726547, 2250919.395893532317132 ], [ -194140.190711216157069, 2274715.434172971639782 ], [ -211564.473003931547282, 2290393.117955048568547 ], [ -235744.833699901966611, 2282340.957534944172949 ] ] ] } },
{ "type": "Feature", "properties": { "h3": "841fa11ffffffff", "count": 1.0, "ratio": 0, "z_score": null, "p_value": null, "bin": 0, "date": "2021-07-25T00:00:00" }, "geometry": { "type": "Polygon", "coordinates": [ [ [ -204776.498256248567486, 2314072.872277738992125 ], [ -211564.473003931547282, 2290393.117955048568547 ], [ -194140.190711216157069, 2274715.434172971639782 ], [ -169890.208663254597923, 2282783.891955998260528 ], [ -163145.249807501764735, 2306524.061797318980098 ], [ -180607.018625057040481, 2322135.415549024473876 ], [ -204776.498256248567486, 2314072.872277738992125 ] ] ] } },
{ "type": "Feature", "properties": { "h3": "841fa13ffffffff", "count": 1.0, "ratio": 0, "z_score": null, "p_value": null, "bin": 0, "date": "2021-07-29T00:00:00" }, "geometry": { "type": "Polygon", "coordinates": [ [ [ -163145.249807501764735, 2306524.061797318980098 ], [ -169890.208663254597923, 2282783.891955998260528 ], [ -152353.920040687808068, 2267061.998748318757862 ], [ -128035.975160935602617, 2275146.790453087538481 ], [ -121334.977087857740116, 2298946.607971276622266 ], [ -138907.722504065517569, 2314602.047366945073009 ], [ -163145.249807501764735, 2306524.061797318980098 ] ] ] } },
{ "type": "Feature", "properties": { "h3": "841fa3bffffffff", "count": 0.0, "ratio": 0, "z_score": null, "p_value": null, "bin": 0, "date": "2021-07-29T00:00:00" }, "geometry": { "type": "Polygon", "coordinates": [ [ [ -225195.645115368650295, 2242862.381689661648124 ], [ -232038.849866867327364, 2219012.485566190909594 ], [ -214578.247873132611858, 2203157.944964934140444 ], [ -190235.903399627859471, 2211219.627390718553215 ], [ -183435.526872788992478, 2235131.129351895302534 ], [ -200934.43042380726547, 2250919.395893532317132 ], [ -225195.645115368650295, 2242862.381689661648124 ] ] ] } },
{ "type": "Feature", "properties": { "h3": "841fa03ffffffff", "count": 1.0, "ratio": 0, "z_score": null, "p_value": null, "bin": 0, "date": "2021-07-29T00:00:00" }, "geometry": { "type": "Polygon", "coordinates": [ [ [ -277165.533947431540582, 2289937.75497801695019 ], [ -284043.74740027054213, 2266265.248807171359658 ], [ -266771.556744947447442, 2250566.443808128125966 ], [ -242581.529859822563594, 2258606.312553789000958 ], [ -235744.833699901966611, 2282340.957534944172949 ], [ -253056.413180185423698, 2297973.64389383001253 ], [ -277165.533947431540582, 2289937.75497801695019 ] ] ] } },
{ "type": "Feature", "properties": { "h3": "841fa17ffffffff", "count": 0.0, "ratio": 0, "z_score": null, "p_value": null, "bin": 0, "date": "2021-07-29T00:00:00" }, "geometry": { "type": "Polygon", "coordinates": [ [ [ -194140.190711216157069, 2274715.434172971639782 ], [ -200934.43042380726547, 2250919.395893532317132 ], [ -183435.526872788992478, 2235131.129351895302534 ], [ -159104.760139008052647, 2243205.331504403147846 ], [ -152353.920040687808068, 2267061.998748318757862 ], [ -169890.208663254597923, 2282783.891955998260528 ], [ -194140.190711216157069, 2274715.434172971639782 ] ] ] } },
{ "type": "Feature", "properties": { "h3": "841fa1dffffffff", "count": 0.0, "ratio": 0, "z_score": null, "p_value": null, "bin": 0, "date": "2021-07-29T00:00:00" }, "geometry": { "type": "Polygon", "coordinates": [ [ [ -246226.363554838259006, 2321592.233359240461141 ], [ -253056.413180185423698, 2297973.64389383001253 ], [ -235744.833699901966611, 2282340.957534944172949 ], [ -211564.473003931547282, 2290393.117955048568547 ], [ -204776.498256248567486, 2314072.872277738992125 ], [ -222126.573101351765217, 2329639.354491400532424 ], [ -246226.363554838259006, 2321592.233359240461141 ] ] ] } },
{ "type": "Feature", "properties": { "h3": "841fa39ffffffff", "count": 0.0, "ratio": 0, "z_score": null, "p_value": null, "bin": 0, "date": "2021-07-29T00:00:00" }, "geometry": { "type": "Polygon", "coordinates": [ [ [ -266771.556744947447442, 2250566.443808128125966 ], [ -273656.648329236486461, 2226778.913882328663021 ], [ -256310.060174095386174, 2210968.837764331139624 ], [ -232038.849866867327364, 2219012.485566190909594 ], [ -225195.645115368650295, 2242862.381689661648124 ], [ -242581.529859822563594, 2258606.312553789000958 ], [ -266771.556744947447442, 2250566.443808128125966 ] ] ] } },
{ "type": "Feature", "properties": { "h3": "841fa15ffffffff", "count": 0.0, "ratio": 0, "z_score": null, "p_value": null, "bin": 0, "date": "2021-07-29T00:00:00" }, "geometry": { "type": "Polygon", "coordinates": [ [ [ -235744.833699901966611, 2282340.957534944172949 ], [ -242581.529859822563594, 2258606.312553789000958 ], [ -225195.645115368650295, 2242862.381689661648124 ], [ -200934.43042380726547, 2250919.395893532317132 ], [ -194140.190711216157069, 2274715.434172971639782 ], [ -211564.473003931547282, 2290393.117955048568547 ], [ -235744.833699901966611, 2282340.957534944172949 ] ] ] } },
{ "type": "Feature", "properties": { "h3": "841fa11ffffffff", "count": 0.0, "ratio": 0, "z_score": null, "p_value": null, "bin": 0, "date": "2021-07-29T00:00:00" }, "geometry": { "type": "Polygon", "coordinates": [ [ [ -204776.498256248567486, 2314072.872277738992125 ], [ -211564.473003931547282, 2290393.117955048568547 ], [ -194140.190711216157069, 2274715.434172971639782 ], [ -169890.208663254597923, 2282783.891955998260528 ], [ -163145.249807501764735, 2306524.061797318980098 ], [ -180607.018625057040481, 2322135.415549024473876 ], [ -204776.498256248567486, 2314072.872277738992125 ] ] ] } },
{ "type": "Feature", "properties": { "h3": "841fa13ffffffff", "count": 1.0, "ratio": 0, "z_score": null, "p_value": null, "bin": 0, "date": "2021-07-30T00:00:00" }, "geometry": { "type": "Polygon", "coordinates": [ [ [ -163145.249807501764735, 2306524.061797318980098 ], [ -169890.208663254597923, 2282783.891955998260528 ], [ -152353.920040687808068, 2267061.998748318757862 ], [ -128035.975160935602617, 2275146.790453087538481 ], [ -121334.977087857740116, 2298946.607971276622266 ], [ -138907.722504065517569, 2314602.047366945073009 ], [ -163145.249807501764735, 2306524.061797318980098 ] ] ] } },
{ "type": "Feature", "properties": { "h3": "841fa3bffffffff", "count": 0.0, "ratio": 0, "z_score": null, "p_value": null, "bin": 0, "date": "2021-07-30T00:00:00" }, "geometry": { "type": "Polygon", "coordinates": [ [ [ -225195.645115368650295, 2242862.381689661648124 ], [ -232038.849866867327364, 2219012.485566190909594 ], [ -214578.247873132611858, 2203157.944964934140444 ], [ -190235.903399627859471, 2211219.627390718553215 ], [ -183435.526872788992478, 2235131.129351895302534 ], [ -200934.43042380726547, 2250919.395893532317132 ], [ -225195.645115368650295, 2242862.381689661648124 ] ] ] } },
{ "type": "Feature", "properties": { "h3": "841fa03ffffffff", "count": 1.0, "ratio": 0, "z_score": null, "p_value": null, "bin": 0, "date": "2021-07-30T00:00:00" }, "geometry": { "type": "Polygon", "coordinates": [ [ [ -277165.533947431540582, 2289937.75497801695019 ], [ -284043.74740027054213, 2266265.248807171359658 ], [ -266771.556744947447442, 2250566.443808128125966 ], [ -242581.529859822563594, 2258606.312553789000958 ], [ -235744.833699901966611, 2282340.957534944172949 ], [ -253056.413180185423698, 2297973.64389383001253 ], [ -277165.533947431540582, 2289937.75497801695019 ] ] ] } },
{ "type": "Feature", "properties": { "h3": "841fa17ffffffff", "count": 0.0, "ratio": 0, "z_score": null, "p_value": null, "bin": 0, "date": "2021-07-30T00:00:00" }, "geometry": { "type": "Polygon", "coordinates": [ [ [ -194140.190711216157069, 2274715.434172971639782 ], [ -200934.43042380726547, 2250919.395893532317132 ], [ -183435.526872788992478, 2235131.129351895302534 ], [ -159104.760139008052647, 2243205.331504403147846 ], [ -152353.920040687808068, 2267061.998748318757862 ], [ -169890.208663254597923, 2282783.891955998260528 ], [ -194140.190711216157069, 2274715.434172971639782 ] ] ] } },
{ "type": "Feature", "properties": { "h3": "841fa1dffffffff", "count": 0.0, "ratio": 0, "z_score": null, "p_value": null, "bin": 0, "date": "2021-07-30T00:00:00" }, "geometry": { "type": "Polygon", "coordinates": [ [ [ -246226.363554838259006, 2321592.233359240461141 ], [ -253056.413180185423698, 2297973.64389383001253 ], [ -235744.833699901966611, 2282340.957534944172949 ], [ -211564.473003931547282, 2290393.117955048568547 ], [ -204776.498256248567486, 2314072.872277738992125 ], [ -222126.573101351765217, 2329639.354491400532424 ], [ -246226.363554838259006, 2321592.233359240461141 ] ] ] } },
{ "type": "Feature", "properties": { "h3": "841fa39ffffffff", "count": 0.0, "ratio": 0, "z_score": null, "p_value": null, "bin": 0, "date": "2021-07-30T00:00:00" }, "geometry": { "type": "Polygon", "coordinates": [ [ [ -266771.556744947447442, 2250566.443808128125966 ], [ -273656.648329236486461, 2226778.913882328663021 ], [ -256310.060174095386174, 2210968.837764331139624 ], [ -232038.849866867327364, 2219012.485566190909594 ], [ -225195.645115368650295, 2242862.381689661648124 ], [ -242581.529859822563594, 2258606.312553789000958 ], [ -266771.556744947447442, 2250566.443808128125966 ] ] ] } },
{ "type": "Feature", "properties": { "h3": "841fa15ffffffff", "count": 0.0, "ratio": 0, "z_score": null, "p_value": null, "bin": 0, "date": "2021-07-30T00:00:00" }, "geometry": { "type": "Polygon", "coordinates": [ [ [ -235744.833699901966611, 2282340.957534944172949 ], [ -242581.529859822563594, 2258606.312553789000958 ], [ -225195.645115368650295, 2242862.381689661648124 ], [ -200934.43042380726547, 2250919.395893532317132 ], [ -194140.190711216157069, 2274715.434172971639782 ], [ -211564.473003931547282, 2290393.117955048568547 ], [ -235744.833699901966611, 2282340.957534944172949 ] ] ] } },
{ "type": "Feature", "properties": { "h3": "841fa11ffffffff", "count": 1.0, "ratio": 0, "z_score": null, "p_value": null, "bin": 0, "date": "2021-07-30T00:00:00" }, "geometry": { "type": "Polygon", "coordinates": [ [ [ -204776.498256248567486, 2314072.872277738992125 ], [ -211564.473003931547282, 2290393.117955048568547 ], [ -194140.190711216157069, 2274715.434172971639782 ], [ -169890.208663254597923, 2282783.891955998260528 ], [ -163145.249807501764735, 2306524.061797318980098 ], [ -180607.018625057040481, 2322135.415549024473876 ], [ -204776.498256248567486, 2314072.872277738992125 ] ] ] } }
]
}
